{"type":"FeatureCollection","license":"ODbL-1.0","licenseUrl":"https://opendatacommons.org/licenses/odbl/1-0/","attribution":"\u00a9 OpenStreetMap contributors","source":"https://www.openstreetmap.org/api/0.6/map?bbox=-71.0680,42.3549,-71.0630,42.3576","retrieved":"2026-10-03","features":[{"type":"Feature","properties":{"osmType":"way","osmId":8647432,"kind":"street","name":"Beacon Street"},"geometry":{"type":"LineString","coordinates":[[-71.065086,42.3571645],[-71.0650322,42.3571764],[-71.0650008,42.3571834],[-71.0647668,42.3572352],[-71.0645988,42.3572788],[-71.0644344,42.3573277],[-71.0642285,42.3573946],[-71.0639925,42.3574675],[-71.0637255,42.3575535],[-71.0633918,42.3576542],[-71.0633618,42.357663],[-71.0632118,42.3577154]]}},{"type":"Feature","properties":{"osmType":"way","osmId":22653013,"kind":"path","name":"Beacon Street Mall"},"geometry":{"type":"LineString","coordinates":[[-71.0691785,42.3561101],[-71.0691565,42.356101],[-71.0689993,42.3560488],[-71.0689935,42.3560644],[-71.0689828,42.3560805],[-71.0689648,42.3560989],[-71.0689505,42.3561089],[-71.0689361,42.3561151],[-71.0677972,42.3563631],[-71.0676085,42.3564043],[-71.0675749,42.3564116],[-71.0674938,42.3564296],[-71.0674447,42.3564405],[-71.0665528,42.3566408],[-71.0658728,42.3567845],[-71.0657701,42.3568077],[-71.0650123,42.3569635],[-71.0646385,42.3570528],[-71.0643605,42.3571283],[-71.0639498,42.3572663],[-71.0636651,42.3573692]]}},{"type":"Feature","properties":{"osmType":"way","osmId":23786695,"kind":"steps","name":""},"geometry":{"type":"LineString","coordinates":[[-71.0658053,42.3569163],[-71.0657899,42.356878]]}},{"type":"Feature","properties":{"osmType":"way","osmId":23786710,"kind":"path","name":""},"geometry":{"type":"LineString","coordinates":[[-71.0674906,42.3552745],[-71.0675275,42.355323],[-71.0675384,42.3553679],[-71.0675594,42.3562045],[-71.0676144,42.3561931],[-71.0676242,42.3561911],[-71.0676515,42.3561854]]}},{"type":"Feature","properties":{"osmType":"way","osmId":23786715,"kind":"path","name":""},"geometry":{"type":"LineString","coordinates":[[-71.0666021,42.3554961],[-71.0666047,42.3554625],[-71.0665964,42.3554293],[-71.0665723,42.3553921],[-71.0665347,42.3553617],[-71.0664869,42.3553404],[-71.066445,42.3553315],[-71.0664015,42.3553298],[-71.0663586,42.3553354],[-71.0663112,42.3553512],[-71.0662712,42.3553758],[-71.0662417,42.3554074],[-71.0662248,42.3554438],[-71.0662217,42.3554822],[-71.0662287,42.3555151],[-71.0662611,42.355558],[-71.0663039,42.3555881],[-71.0663571,42.3556071],[-71.0664156,42.3556132],[-71.0664739,42.3556059],[-71.0665103,42.3555937],[-71.0665425,42.3555761],[-71.0665691,42.355554],[-71.0665889,42.3555283],[-71.0666021,42.3554961]]}},{"type":"Feature","properties":{"osmType":"way","osmId":23786716,"kind":"path","name":""},"geometry":{"type":"LineString","coordinates":[[-71.0664869,42.3553404],[-71.0665193,42.3552973],[-71.0665399,42.355275],[-71.0665561,42.355254],[-71.0665723,42.3552303],[-71.0665814,42.3552039],[-71.0665877,42.3551776],[-71.0665884,42.3551405],[-71.0665861,42.3551026],[-71.0665762,42.3550625],[-71.066553,42.3549852],[-71.0665056,42.3548316],[-71.0664926,42.3547882],[-71.06639,42.3546277]]}},{"type":"Feature","properties":{"osmType":"way","osmId":23786723,"kind":"path","name":""},"geometry":{"type":"LineString","coordinates":[[-71.0656914,42.3556663],[-71.0649003,42.3558835],[-71.0648753,42.3558977],[-71.0648483,42.355907],[-71.0648191,42.3559114],[-71.0642421,42.3559855],[-71.0641766,42.3559977],[-71.0640252,42.3558359]]}},{"type":"Feature","properties":{"osmType":"way","osmId":23786847,"kind":"path","name":""},"geometry":{"type":"LineString","coordinates":[[-71.0649422,42.3564253],[-71.0650001,42.3563905],[-71.0651329,42.3563384],[-71.0652677,42.3562795],[-71.0654008,42.3564275]]}},{"type":"Feature","properties":{"osmType":"way","osmId":23786858,"kind":"path","name":""},"geometry":{"type":"LineString","coordinates":[[-71.0640252,42.3558359],[-71.0637129,42.3555037],[-71.0636338,42.3554206]]}},{"type":"Feature","properties":{"osmType":"way","osmId":23786866,"kind":"path","name":"Lyman Path"},"geometry":{"type":"LineString","coordinates":[[-71.0641766,42.3559977],[-71.0645486,42.3564198],[-71.0646858,42.3565563],[-71.0648831,42.3567687],[-71.0650123,42.3569635],[-71.0650269,42.3569987]]}},{"type":"Feature","properties":{"osmType":"way","osmId":23787089,"kind":"path","name":""},"geometry":{"type":"LineString","coordinates":[[-71.0665959,42.3559348],[-71.0665882,42.3559178],[-71.066574,42.3559002],[-71.066559,42.3558846],[-71.0665424,42.3558744],[-71.0665212,42.3558664],[-71.0664895,42.3558579],[-71.0664793,42.3558552],[-71.0664461,42.35585],[-71.0664199,42.3558491],[-71.066394,42.3558499],[-71.0663699,42.3558533],[-71.0663451,42.3558586],[-71.0662984,42.3558736],[-71.0662535,42.3558892],[-71.0662035,42.3559091],[-71.0661667,42.3559268],[-71.066135,42.3559431],[-71.066108,42.355958],[-71.0660802,42.355973],[-71.0660605,42.3559846],[-71.0660344,42.3559967],[-71.0660068,42.3560056],[-71.0659784,42.3560112],[-71.0659576,42.3560128],[-71.0659353,42.3560127],[-71.0659095,42.3560104],[-71.0658682,42.3560039],[-71.0656562,42.3559634],[-71.0653407,42.3559067],[-71.0653024,42.3559032],[-71.0652603,42.3559034],[-71.0652159,42.3559076],[-71.0651765,42.3559157],[-71.0651339,42.3559339],[-71.0650914,42.3559566],[-71.0650688,42.355974],[-71.065049,42.3559993],[-71.0650379,42.3560239],[-71.0650318,42.356041],[-71.0650317,42.3560686],[-71.0650345,42.3560812],[-71.0650377,42.3560964],[-71.0650425,42.3561114],[-71.0650499,42.3561283],[-71.0650585,42.356146],[-71.0650692,42.3561601],[-71.065081,42.3561717],[-71.0650886,42.3561799],[-71.065099,42.3561897],[-71.0651214,42.3562051],[-71.065145,42.356221],[-71.0651612,42.3562314],[-71.0651857,42.3562437],[-71.065211,42.3562568],[-71.0652288,42.3562638],[-71.0652484,42.3562726],[-71.0652677,42.3562795],[-71.0652998,42.3562876],[-71.0653282,42.3562941],[-71.0653624,42.3563012],[-71.0654042,42.3563087],[-71.0654284,42.3563123],[-71.0654569,42.3563154],[-71.0654808,42.3563173],[-71.0655211,42.3563216],[-71.0655587,42.3563236],[-71.0655972,42.3563239],[-71.0656314,42.3563239],[-71.0656807,42.3563212],[-71.0657111,42.3563181],[-71.0657443,42.3563139],[-71.0657867,42.3563064],[-71.065806,42.3563032],[-71.0658292,42.3562979],[-71.0658495,42.3562938],[-71.0658839,42.3562854],[-71.0659132,42.3562774],[-71.0659449,42.3562683],[-71.0659859,42.3562573],[-71.0660313,42.3562431],[-71.0660873,42.3562228],[-71.0661424,42.356202],[-71.066187,42.3561852],[-71.0662494,42.3561613],[-71.0663021,42.3561392],[-71.066342,42.3561226],[-71.0663927,42.3561009],[-71.0665046,42.3560533],[-71.0665291,42.3560421],[-71.0665626,42.3560265],[-71.0665784,42.3560159],[-71.0665934,42.355997],[-71.0665987,42.355979],[-71.0666001,42.355957],[-71.0665959,42.3559348]]}},{"type":"Feature","properties":{"osmType":"way","osmId":23787146,"kind":"path","name":""},"geometry":{"type":"LineString","coordinates":[[-71.0665889,42.3555283],[-71.0666222,42.355541],[-71.0666582,42.3555658],[-71.0666774,42.3555834],[-71.0666868,42.3555985],[-71.0666938,42.3556197],[-71.0667431,42.3558857]]}},{"type":"Feature","properties":{"osmType":"way","osmId":24677690,"kind":"pavilion","name":""},"geometry":{"type":"LineString","coordinates":[[-71.0658144,42.3559473],[-71.0657284,42.3559313],[-71.0657259,42.355941],[-71.0656684,42.3559303],[-71.0656155,42.3559207],[-71.065618,42.355909],[-71.0655325,42.3558935],[-71.0655534,42.3558311],[-71.0656402,42.3558491],[-71.0656434,42.355839],[-71.0657564,42.3558584],[-71.0657524,42.3558694],[-71.0658364,42.3558855],[-71.0658144,42.3559473]]}},{"type":"Feature","properties":{"osmType":"way","osmId":24677760,"kind":"pond","name":"Frog Pond"},"geometry":{"type":"LineString","coordinates":[[-71.0665664,42.3559625],[-71.0665655,42.3559692],[-71.066564,42.355976],[-71.0665603,42.355984],[-71.0665564,42.3559901],[-71.0665512,42.355997],[-71.066544,42.3560049],[-71.0665361,42.3560118],[-71.0665269,42.3560181],[-71.0665142,42.3560251],[-71.0665017,42.3560314],[-71.0664894,42.3560374],[-71.0664654,42.3560475],[-71.0664453,42.3560558],[-71.066427,42.356064],[-71.0664005,42.3560756],[-71.0663762,42.3560865],[-71.0663611,42.3560936],[-71.066343,42.3561016],[-71.0663306,42.3561072],[-71.0663179,42.3561131],[-71.0662942,42.3561233],[-71.0662575,42.356138],[-71.066161,42.3561782],[-71.0661128,42.3561966],[-71.0660892,42.3562053],[-71.0660667,42.356213],[-71.0660429,42.3562211],[-71.0660182,42.3562294],[-71.066001,42.356235],[-71.0659762,42.3562426],[-71.0659441,42.3562514],[-71.0659175,42.3562587],[-71.0658921,42.3562655],[-71.0658629,42.3562727],[-71.065831,42.35628],[-71.0658124,42.356284],[-71.0657762,42.3562909],[-71.0657453,42.3562952],[-71.0657146,42.3562995],[-71.0656981,42.3563008],[-71.0656784,42.3563025],[-71.0656577,42.3563036],[-71.0656318,42.3563053],[-71.0656006,42.3563053],[-71.0655614,42.3563041],[-71.0655407,42.3563035],[-71.0655211,42.3563032],[-71.0654367,42.3562968],[-71.0654075,42.3562913],[-71.0653569,42.3562806],[-71.0653216,42.3562715],[-71.0652622,42.3562542],[-71.0652248,42.35624],[-71.0651889,42.3562222],[-71.0651624,42.3562068],[-71.0651294,42.3561842],[-71.0650994,42.3561606],[-71.0650786,42.3561382],[-71.0650666,42.356117],[-71.0650606,42.3561013],[-71.0650572,42.3560825],[-71.0650568,42.3560643],[-71.06506,42.3560411],[-71.0650698,42.3560204],[-71.0650791,42.3560071],[-71.0650931,42.3559904],[-71.0651084,42.3559775],[-71.0651272,42.355963],[-71.0651436,42.3559551],[-71.0651725,42.3559417],[-71.065209,42.3559297],[-71.0652451,42.355924],[-71.0652782,42.3559251],[-71.0653124,42.3559273],[-71.0653418,42.3559308],[-71.0653951,42.3559377],[-71.0654479,42.355946],[-71.0654849,42.3559527],[-71.0655331,42.355962],[-71.0656192,42.3559789],[-71.0657147,42.3559963],[-71.0657947,42.3560103],[-71.0658315,42.356018],[-71.0658587,42.3560227],[-71.0658724,42.3560252],[-71.0658889,42.3560274],[-71.0659082,42.3560295],[-71.0659296,42.3560309],[-71.0659486,42.3560306],[-71.0659671,42.3560298],[-71.0659969,42.3560266],[-71.0660234,42.356021],[-71.066035,42.3560176],[-71.0660471,42.3560129],[-71.0660578,42.3560082],[-71.066071,42.3560016],[-71.0660799,42.3559968],[-71.0661018,42.355984],[-71.0661226,42.3559724],[-71.0661348,42.3559655],[-71.0661533,42.3559558],[-71.0661644,42.3559498],[-71.0661783,42.355943],[-71.0662289,42.3559195],[-71.0662623,42.355907],[-71.0662906,42.3558959],[-71.0663201,42.355886],[-71.0663383,42.3558815],[-71.0663582,42.3558764],[-71.0664064,42.355869],[-71.0664345,42.3558679],[-71.066455,42.3558699],[-71.0664763,42.3558725],[-71.066494,42.3558776],[-71.0665092,42.3558824],[-71.0665244,42.3558886],[-71.066539,42.3558984],[-71.0665518,42.3559125],[-71.06656,42.3559248],[-71.0665642,42.3559355],[-71.0665666,42.3559485],[-71.0665671,42.3559561],[-71.0665664,42.3559625]]}},{"type":"Feature","properties":{"osmType":"way","osmId":34404720,"kind":"path","name":""},"geometry":{"type":"LineString","coordinates":[[-71.0643534,42.3556822],[-71.0648191,42.3559114]]}},{"type":"Feature","properties":{"osmType":"way","osmId":34404725,"kind":"path","name":"Brimmer Path"},"geometry":{"type":"LineString","coordinates":[[-71.063436,42.3566211],[-71.0634618,42.3566015],[-71.0639683,42.3565098],[-71.0645486,42.3564198],[-71.0649422,42.3564253],[-71.0650134,42.356423],[-71.0654008,42.3564275],[-71.066305,42.3564134],[-71.0666545,42.3564017],[-71.067357,42.3563858],[-71.0674447,42.3564405]]}},{"type":"Feature","properties":{"osmType":"way","osmId":172094386,"kind":"path","name":"Armstrong Path"},"geometry":{"type":"LineString","coordinates":[[-71.0625398,42.3563207],[-71.0627324,42.3564246],[-71.0629975,42.3565006],[-71.063436,42.3566211],[-71.0638941,42.3567331],[-71.0647908,42.3569371],[-71.0650123,42.3569635]]}},{"type":"Feature","properties":{"osmType":"way","osmId":172126958,"kind":"path","name":""},"geometry":{"type":"LineString","coordinates":[[-71.0665528,42.3566408],[-71.0665678,42.3566824]]}},{"type":"Feature","properties":{"osmType":"way","osmId":172126959,"kind":"path","name":""},"geometry":{"type":"LineString","coordinates":[[-71.067357,42.3563858],[-71.0667968,42.3560158]]}},{"type":"Feature","properties":{"osmType":"way","osmId":376449332,"kind":"playground","name":"Tadpole Playground"},"geometry":{"type":"LineString","coordinates":[[-71.0648082,42.3561906],[-71.0647979,42.356193],[-71.0646154,42.3562078],[-71.0646001,42.356204],[-71.0645894,42.3561969],[-71.0645832,42.3561875],[-71.0645806,42.3561748],[-71.0645803,42.3561631],[-71.0645775,42.3561532],[-71.0645711,42.3561422],[-71.0645616,42.3561312],[-71.0645557,42.3561193],[-71.0645542,42.3561087],[-71.0645537,42.3560954],[-71.0645511,42.3560857],[-71.0645418,42.3560738],[-71.0645346,42.3560662],[-71.0645288,42.3560561],[-71.0645255,42.3560475],[-71.0645277,42.3560379],[-71.0645319,42.3560281],[-71.064539,42.3560193],[-71.0645487,42.3560139],[-71.0645613,42.3560091],[-71.0645763,42.3560071],[-71.0645939,42.3560073],[-71.0646094,42.3560074],[-71.0646306,42.3560049],[-71.0646502,42.3559997],[-71.0646669,42.3559941],[-71.0646884,42.3559912],[-71.0647162,42.3559926],[-71.0647288,42.3559918],[-71.0647492,42.3559869],[-71.0647724,42.3559802],[-71.0647825,42.35598],[-71.0647961,42.3559811],[-71.0648059,42.3559806],[-71.0648124,42.3559783],[-71.0648164,42.3559788],[-71.0648172,42.3560139],[-71.0648317,42.3560157],[-71.0648442,42.3560201],[-71.0648508,42.3560291],[-71.0648515,42.3560366],[-71.0648521,42.356043],[-71.0648535,42.3560579],[-71.064818,42.3560787],[-71.0648188,42.3560988],[-71.0648148,42.3561039],[-71.0648153,42.3561351],[-71.0648308,42.3561351],[-71.0648309,42.3561411],[-71.064812,42.3561422],[-71.0648119,42.3561577],[-71.0648271,42.3561575],[-71.0648227,42.3561743],[-71.0648214,42.3561801],[-71.064816,42.3561857],[-71.0648082,42.3561906]]}},{"type":"Feature","properties":{"osmType":"way","osmId":380662067,"kind":"street","name":"Beacon Street"},"geometry":{"type":"LineString","coordinates":[[-71.0676147,42.3565931],[-71.0675701,42.3566031],[-71.0675174,42.3566149],[-71.067107,42.3567069],[-71.0666133,42.3568176],[-71.0658569,42.3569935],[-71.065788,42.3570099],[-71.0656396,42.3570427],[-71.0651558,42.3571496],[-71.0651213,42.3571572],[-71.065086,42.3571645]]}},{"type":"Feature","properties":{"osmType":"way","osmId":383026771,"kind":"path","name":""},"geometry":{"type":"LineString","coordinates":[[-71.0658053,42.3569163],[-71.0658085,42.35692],[-71.0658569,42.3569935],[-71.0658963,42.357051]]}},{"type":"Feature","properties":{"osmType":"way","osmId":448434105,"kind":"path","name":""},"geometry":{"type":"LineString","coordinates":[[-71.064859,42.3550781],[-71.0645453,42.3554282],[-71.0643107,42.3557006],[-71.0642732,42.3557558],[-71.0641766,42.3559977],[-71.0639683,42.3565098],[-71.0638941,42.3567331],[-71.0636901,42.3572264],[-71.0636767,42.3572467],[-71.0636571,42.3572638],[-71.0636375,42.3572734]]}},{"type":"Feature","properties":{"osmType":"way","osmId":814732156,"kind":"carousel","name":"Frog Pond Carousel"},"geometry":{"type":"LineString","coordinates":[[-71.0667306,42.3559208],[-71.0667459,42.3559156],[-71.0667625,42.3559141],[-71.066779,42.3559166],[-71.0667936,42.3559227],[-71.066805,42.3559318],[-71.0668119,42.3559431],[-71.0668138,42.3559555],[-71.0668104,42.3559676],[-71.066802,42.3559784],[-71.0667896,42.3559867],[-71.0667744,42.3559918],[-71.0667578,42.3559931],[-71.0667415,42.3559906],[-71.066727,42.3559845],[-71.0667157,42.3559754],[-71.0667088,42.3559642],[-71.0667069,42.355952],[-71.0667102,42.3559399],[-71.0667184,42.3559291],[-71.0667306,42.3559208]]}},{"type":"Feature","properties":{"osmType":"way","osmId":815602975,"kind":"steps","name":"Guild Steps"},"geometry":{"type":"LineString","coordinates":[[-71.0650269,42.3569987],[-71.0650631,42.357081]]}},{"type":"Feature","properties":{"osmType":"way","osmId":815602976,"kind":"path","name":""},"geometry":{"type":"LineString","coordinates":[[-71.0676875,42.3566611],[-71.0676456,42.3566688],[-71.0675981,42.3566765]]}},{"type":"Feature","properties":{"osmType":"way","osmId":815602977,"kind":"path","name":""},"geometry":{"type":"LineString","coordinates":[[-71.0657899,42.356878],[-71.0657701,42.3568077]]}},{"type":"Feature","properties":{"osmType":"way","osmId":815602983,"kind":"path","name":""},"geometry":{"type":"LineString","coordinates":[[-71.0650265,42.3572458],[-71.0647767,42.3572993],[-71.064656,42.3573231],[-71.0644391,42.357392],[-71.0642752,42.357444],[-71.0640024,42.3575282],[-71.0635493,42.3576745]]}},{"type":"Feature","properties":{"osmType":"way","osmId":815603013,"kind":"path","name":""},"geometry":{"type":"LineString","coordinates":[[-71.0651512,42.357219],[-71.0651414,42.3572517],[-71.0651347,42.3579024],[-71.0651375,42.3582895]]}},{"type":"Feature","properties":{"osmType":"way","osmId":815603051,"kind":"path","name":""},"geometry":{"type":"LineString","coordinates":[[-71.0650265,42.3572458],[-71.0650377,42.3572749],[-71.0650339,42.3576654]]}},{"type":"Feature","properties":{"osmType":"way","osmId":815603057,"kind":"path","name":""},"geometry":{"type":"LineString","coordinates":[[-71.0659001,42.3570502],[-71.0658863,42.3570718],[-71.0660099,42.3574144],[-71.0661472,42.3577834]]}},{"type":"Feature","properties":{"osmType":"way","osmId":815606416,"kind":"path","name":""},"geometry":{"type":"LineString","coordinates":[[-71.06578,42.3570795],[-71.0659168,42.3574405],[-71.066008,42.3576813],[-71.0661046,42.3579518],[-71.0661971,42.3582312],[-71.066191,42.3582656]]}},{"type":"Feature","properties":{"osmType":"way","osmId":815610752,"kind":"path","name":""},"geometry":{"type":"LineString","coordinates":[[-71.0691785,42.3561101],[-71.0691508,42.3561462],[-71.0691373,42.3561621],[-71.0691163,42.356174],[-71.0690937,42.3561833],[-71.0690106,42.3562035],[-71.0676487,42.3565067],[-71.0675418,42.3565293],[-71.0665921,42.356749],[-71.0658085,42.35692],[-71.0650657,42.3570864]]}},{"type":"Feature","properties":{"osmType":"way","osmId":816863448,"kind":"path","name":""},"geometry":{"type":"LineString","coordinates":[[-71.0675981,42.3566765],[-71.0675701,42.3566031],[-71.0675418,42.3565293]]}},{"type":"Feature","properties":{"osmType":"way","osmId":825494618,"kind":"path","name":""},"geometry":{"type":"LineString","coordinates":[[-71.0675981,42.3566765],[-71.0671562,42.3567703]]}},{"type":"Feature","properties":{"osmType":"way","osmId":825494641,"kind":"path","name":""},"geometry":{"type":"LineString","coordinates":[[-71.0650657,42.3570864],[-71.0650883,42.3570917],[-71.0651213,42.3571572],[-71.0651512,42.357219],[-71.0650869,42.3572322],[-71.0650265,42.3572458],[-71.0650322,42.3571764],[-71.0650506,42.3570996],[-71.0650657,42.3570864]]}},{"type":"Feature","properties":{"osmType":"way","osmId":825494642,"kind":"path","name":""},"geometry":{"type":"LineString","coordinates":[[-71.0650657,42.3570864],[-71.0649212,42.3571227],[-71.0645135,42.3572139],[-71.0636702,42.35748]]}},{"type":"Feature","properties":{"osmType":"way","osmId":825494643,"kind":"path","name":""},"geometry":{"type":"LineString","coordinates":[[-71.0650657,42.3570864],[-71.0650631,42.357081]]}},{"type":"Feature","properties":{"osmType":"way","osmId":842253913,"kind":"path","name":""},"geometry":{"type":"LineString","coordinates":[[-71.0656914,42.3556663],[-71.0648683,42.3554648],[-71.0645453,42.3554282]]}},{"type":"Feature","properties":{"osmType":"way","osmId":842253914,"kind":"path","name":""},"geometry":{"type":"LineString","coordinates":[[-71.0666689,42.3559524],[-71.0666001,42.355957]]}},{"type":"Feature","properties":{"osmType":"way","osmId":848259475,"kind":"path","name":""},"geometry":{"type":"LineString","coordinates":[[-71.0671562,42.3567703],[-71.0671334,42.3567751],[-71.0671147,42.3567793]]}},{"type":"Feature","properties":{"osmType":"way","osmId":848259476,"kind":"path","name":""},"geometry":{"type":"LineString","coordinates":[[-71.0671147,42.3567793],[-71.0659001,42.3570502],[-71.0658963,42.357051]]}},{"type":"Feature","properties":{"osmType":"way","osmId":850688503,"kind":"path","name":""},"geometry":{"type":"LineString","coordinates":[[-71.0654008,42.3564275],[-71.0655879,42.3565934],[-71.0656806,42.356683],[-71.065749,42.3567504]]}},{"type":"Feature","properties":{"osmType":"way","osmId":850688504,"kind":"path","name":""},"geometry":{"type":"LineString","coordinates":[[-71.065749,42.3567504],[-71.0657701,42.3568077]]}},{"type":"Feature","properties":{"osmType":"way","osmId":850688505,"kind":"path","name":""},"geometry":{"type":"LineString","coordinates":[[-71.0658728,42.3567845],[-71.0659744,42.3566925],[-71.066305,42.3564134],[-71.0667389,42.3560459],[-71.0667464,42.3560342],[-71.0667506,42.3560208]]}},{"type":"Feature","properties":{"osmType":"way","osmId":850688508,"kind":"path","name":"Long Path"},"geometry":{"type":"LineString","coordinates":[[-71.0648203,42.3544192],[-71.064859,42.3550781],[-71.0648683,42.3554648],[-71.0649003,42.3558835],[-71.0649135,42.3560423],[-71.0649422,42.3564253],[-71.0649746,42.3567824],[-71.0650123,42.3569635]]}},{"type":"Feature","properties":{"osmType":"way","osmId":854102067,"kind":"path","name":""},"geometry":{"type":"LineString","coordinates":[[-71.0650318,42.356041],[-71.0649135,42.3560423],[-71.0648521,42.356043]]}},{"type":"Feature","properties":{"osmType":"way","osmId":854102068,"kind":"path","name":""},"geometry":{"type":"LineString","coordinates":[[-71.0667506,42.3560208],[-71.0667643,42.3560212],[-71.066778,42.3560199],[-71.0667968,42.3560158],[-71.0668162,42.3560077],[-71.0668325,42.3559963],[-71.0668481,42.3559764],[-71.0668538,42.3559537],[-71.066849,42.3559309],[-71.0668369,42.3559133],[-71.0668186,42.3558991],[-71.0667956,42.3558892],[-71.0667697,42.3558847],[-71.0667431,42.3558857],[-71.0667138,42.3558941],[-71.0666899,42.3559093],[-71.0666744,42.3559295],[-71.0666689,42.3559524],[-71.0666731,42.3559732],[-71.0666857,42.355992],[-71.0667054,42.3560071],[-71.0667305,42.3560171],[-71.0667506,42.3560208]]}},{"type":"Feature","properties":{"osmType":"way","osmId":854102069,"kind":"steps","name":""},"geometry":{"type":"LineString","coordinates":[[-71.0665678,42.3566824],[-71.0665921,42.356749]]}},{"type":"Feature","properties":{"osmType":"way","osmId":862911395,"kind":"path","name":""},"geometry":{"type":"LineString","coordinates":[[-71.0675749,42.3564116],[-71.0675594,42.3562045],[-71.0668325,42.3559963]]}},{"type":"Feature","properties":{"osmType":"way","osmId":862911397,"kind":"steps","name":""},"geometry":{"type":"LineString","coordinates":[[-71.0675418,42.3565293],[-71.0674938,42.3564296]]}},{"type":"Feature","properties":{"osmType":"way","osmId":1115824688,"kind":"path","name":"Mayor's Walk"},"geometry":{"type":"LineString","coordinates":[[-71.063237,42.3561413],[-71.0632716,42.3561272],[-71.0640252,42.3558359],[-71.0643107,42.3557006],[-71.0643534,42.3556822],[-71.0648683,42.3554648],[-71.0653378,42.3552479],[-71.0654704,42.3551996],[-71.0657405,42.3551137],[-71.0658665,42.3550609],[-71.0664926,42.3547882],[-71.0666432,42.3547493]]}},{"type":"Feature","properties":{"osmType":"way","osmId":1131759737,"kind":"path","name":""},"geometry":{"type":"LineString","coordinates":[[-71.0645453,42.3554282],[-71.0645602,42.3553978],[-71.0645628,42.3553802],[-71.0645544,42.3553665],[-71.0644131,42.3551728],[-71.0643336,42.3550629],[-71.0643258,42.3550394]]}},{"type":"Feature","properties":{"osmType":"way","osmId":1134266031,"kind":"path","name":""},"geometry":{"type":"LineString","coordinates":[[-71.0664682,42.3555297],[-71.0665118,42.355463],[-71.0665083,42.3554547],[-71.0665044,42.3554458],[-71.0665,42.3554361],[-71.0664967,42.3554287],[-71.0664084,42.3553959],[-71.0663988,42.3553971],[-71.0663819,42.3553992],[-71.0663701,42.3554005],[-71.0663639,42.3554013],[-71.0663151,42.3554692],[-71.0663187,42.3554816],[-71.0663212,42.35549],[-71.0663248,42.3555005],[-71.0663264,42.3555051],[-71.0664155,42.3555397],[-71.0664302,42.3555372],[-71.0664439,42.3555349],[-71.0664568,42.3555321],[-71.0664682,42.3555297]]}},{"type":"Feature","properties":{"osmType":"way","osmId":1134266032,"kind":"path","name":""},"geometry":{"type":"LineString","coordinates":[[-71.0664739,42.3556059],[-71.0664439,42.3555349]]}},{"type":"Feature","properties":{"osmType":"way","osmId":1134266033,"kind":"path","name":""},"geometry":{"type":"LineString","coordinates":[[-71.0665964,42.3554293],[-71.0665044,42.3554458]]}},{"type":"Feature","properties":{"osmType":"way","osmId":1134266034,"kind":"path","name":""},"geometry":{"type":"LineString","coordinates":[[-71.0663586,42.3553354],[-71.0663819,42.3553992]]}},{"type":"Feature","properties":{"osmType":"way","osmId":1134266035,"kind":"path","name":""},"geometry":{"type":"LineString","coordinates":[[-71.0662287,42.3555151],[-71.0663212,42.35549]]}},{"type":"Feature","properties":{"osmType":"way","osmId":1148989904,"kind":"path","name":""},"geometry":{"type":"LineString","coordinates":[[-71.0645453,42.3554282],[-71.0638592,42.3553424],[-71.0637272,42.3553246]]}},{"type":"Feature","properties":{"osmType":"way","osmId":1148989905,"kind":"path","name":""},"geometry":{"type":"LineString","coordinates":[[-71.0664793,42.3558552],[-71.0664218,42.3558371],[-71.0663956,42.3558299],[-71.0656914,42.3556663]]}},{"type":"Feature","properties":{"osmType":"way","osmId":1148989906,"kind":"path","name":""},"geometry":{"type":"LineString","coordinates":[[-71.0662287,42.3555151],[-71.0656914,42.3556663]]}},{"type":"Feature","properties":{"osmType":"way","osmId":1148989908,"kind":"path","name":""},"geometry":{"type":"LineString","coordinates":[[-71.066849,42.3559309],[-71.0674906,42.3552745]]}},{"type":"Feature","properties":{"osmType":"way","osmId":1318451129,"kind":"path","name":""},"geometry":{"type":"LineString","coordinates":[[-71.06578,42.3570795],[-71.0657079,42.3570964],[-71.0651512,42.357219]]}},{"type":"Feature","properties":{"osmType":"way","osmId":1318451130,"kind":"path","name":""},"geometry":{"type":"LineString","coordinates":[[-71.0658963,42.357051],[-71.0658181,42.3570706],[-71.06578,42.3570795]]}},{"type":"Feature","properties":{"osmType":"way","osmId":1318451131,"kind":"path","name":""},"geometry":{"type":"LineString","coordinates":[[-71.0675981,42.3566765],[-71.0677123,42.3569633]]}},{"type":"Feature","properties":{"osmType":"way","osmId":1334814997,"kind":"path","name":""},"geometry":{"type":"LineString","coordinates":[[-71.0656562,42.3559634],[-71.0656684,42.3559303]]}}]}
